[{"OBJECT_NAME":"TIANHUI 4B","OBJECT_ID":"2021-134B","EPOCH":"2026-03-09T23:41:45.383712","MEAN_MOTION":15.45143214,"ECCENTRICITY":0.001131,"INCLINATION":88.9796,"RA_OF_ASC_NODE":336.7972,"ARG_OF_PERICENTER":100.8568,"MEAN_ANOMALY":259.3964,"EPHEMERIS_TYPE":0,"CLASSIFICATION_TYPE":"U","NORAD_CAT_ID":50573,"ELEMENT_SET_NO":999,"REV_AT_EPOCH":23451,"BSTAR":0.00022134909,"MEAN_MOTION_DOT":0.00010536,"MEAN_MOTION_DDOT":0},{"OBJECT_NAME":"OBJECT D","OBJECT_ID":"2024-016D","EPOCH":"2026-03-09T22:53:28.816800","MEAN_MOTION":15.4556328,"ECCENTRICITY":0.00075961,"INCLINATION":97.4354,"RA_OF_ASC_NODE":155.9943,"ARG_OF_PERICENTER":82.5472,"MEAN_ANOMALY":277.6639,"EPHEMERIS_TYPE":0,"CLASSIFICATION_TYPE":"U","NORAD_CAT_ID":58823,"ELEMENT_SET_NO":999,"REV_AT_EPOCH":11841,"BSTAR":0.0008320931,"MEAN_MOTION_DOT":0.00040089,"MEAN_MOTION_DDOT":0}]
